#dP2024  5 20  0  0  0.00000000      96 __u+U IGS20 EXT  IAC
## 2315  86400.00000000   900.00000000 60450 0.0000000000000
+   54   G02G03G04G05G06G07G08G09G10G11G12G13G14G15G16G17G18
+        G19G20G21G22G23G24G25G26G27G28G29G30G31G32R01R02R03
+        R04R05R07R08R09R11R12R13R14R15R16R17R18R19R20R21R22
+        R24R25R26  0  0  0  0  0  0  0  0  0  0  0  0  0  0
+          0  0  0  0  0  0  0  0  0  0  0  0  0  0  0  0  0
++         7  8  7  9  8  8  7  7  8  9  9  8  9  7  8  8  9
++         8  9  9  8  7  9  8  8  7  8  9  8  8  8  9  8  8
++         8  7  7  8  8  8  8  7  8  9  9  8  8  7  9  7  7
++         7  8  8  0  0  0  0  0  0  0  0  0  0  0  0  0  0
++         0  0  0  0  0  0  0  0  0  0  0  0  0  0  0  0  0
%c M  cc GPS ccc cccc cccc cccc cccc ccccc ccccc ccccc ccccc
%c cc cc ccc ccc cccc cccc cccc cccc ccccc ccccc ccccc ccccc
%f  0.0000000  0.000000000  0.00000000000  0.000000000000000
%f  0.0000000  0.000000000  0.00000000000  0.000000000000000
%i    0    0    0    0      0      0      0      0         0
%i    0    0    0    0      0      0      0      0         0
/* IAC                                ULTRA-RAPID PREDICTION
/* S/V CLOCKS ARE ALIGNED TO GNSS TIME                      
/* G:C1WC2W R:C1PC2P E:C1XC5X C:C2IC6I J:C1CC2S             
/* PCV:IGS20_2290 OL/AL:FES2004  NONE     YN ORB:CoN CLK:CoN
*  2024 05 20 10 30  0.00000000
PG02  11626.125510 -20469.063672 -11533.929948   -432.912095
PG03   -731.764425 -15934.567598 -21414.931920    372.696333
PG04   1740.119166 -25943.524305  -5043.298371    365.140269
PG05 -15083.963209   8692.869182  19906.283747   -173.364418
PG06 -20854.439860   1479.162024 -16386.914611    263.544286
PG07  -7343.786289 -13966.295577  21851.229943   -132.796082
PG08   7437.347425 -20774.621494  14357.098525    187.962686
PG09  -8008.130395 -24312.058041   6905.425990    203.224753
PG10  24452.681651  10807.182025   -231.486214    -26.384081
PG11 -23510.341839  11231.975814  -4988.273079   -666.590782
PG12  -2460.715636  15697.386058 -21573.487594   -506.954043
PG13 -13192.799962  13293.791883  18531.202505    651.890339
PG14 -22867.629579 -13389.299538   3092.082280    405.253387
PG15  -4795.058459  21802.500381  13745.524779    161.034731
PG16  18719.943733  -4123.307832  18239.478276   -286.793983
PG17 -12605.771822 -15027.425023 -17415.448051    704.652745
PG18   7350.643447  13032.064113  21948.085660   -613.349892
PG19 -14810.226590  -5677.080271 -21539.850423    484.651511
PG20 -22839.179497   3765.223561  12954.503036    375.916992
PG21  15292.128443 -19737.638588  -6924.292524    120.531841
PG22 -24017.795715  -9689.986177  -4720.738593    -16.156113
PG23  18518.244233  15695.978767  11032.588700    229.990760
PG24 -12107.091214  21099.014595 -10573.572294   -471.246947
PG25   8349.268508  17786.442724 -18327.570721    496.034865
PG26  25430.927293   3071.771098   7549.680532    150.112047
PG27  13162.986829 -10076.380844  20364.227783    -24.832799
PG28  19701.830161    483.991320 -17815.715818   -251.968998
PG29   3884.769179  25783.542859   4663.688814   -597.721043
PG30 -16996.992520  -5755.177535  19806.120479   -387.526462
PG31  23703.210734  -7993.293083  -9708.784581   -227.759482
PG32  14423.298923  12131.550545 -18580.830303   -618.033699
PR01  15325.382200  17741.546916 -10025.992474     85.915790
PR02  13003.773047   3343.661090 -21652.816399    -23.001439
PR03   3936.500813 -13801.582347 -21022.507489    100.498699
PR04  -6951.682806 -22835.787097  -8947.274731    237.247341
PR05 -14065.462978 -19731.777224   7953.997456    131.761120
PR07  -3420.516623  14531.637667  20740.878076     82.782600
PR08   7187.574987  22867.234731   8829.741615    -75.485187
PR09 -25352.569260   1179.193197  -2950.134616    187.595493
PR11    548.996877  10944.198292 -23021.832539     24.104161
PR12  19817.759140   7542.436972 -14160.417347     40.346337
PR13  25500.888630    479.603937    402.966055    -47.538629
PR14  16090.324333  -8257.727306  17991.647087     26.494312
PR15  -2294.593161 -11096.657080  22874.646749     79.638272
PR16 -19686.554883  -7464.456660  14440.630640     25.750587
PR17  14743.421531 -20692.113617   2492.728576     88.425319
PR18   6363.793860 -20643.190184 -13516.620923    142.961130
PR19  -3860.017067 -11783.810645 -22298.266465   -277.307449
PR20 -15665.279667   7668.900045 -18629.681877   -113.122533
PR21 -14949.243812  20478.094606  -2682.287152   -102.344853
PR22  -5903.762083  20254.750207  14368.791876    110.651306
PR24  15766.094862  -8606.138207  18128.104613    -56.558447
PR25 -15478.846329  20141.844440  -2206.836782    -37.152717
PR26   6599.373225  22540.275039   9943.730508    -18.687237
*  2024 05 20 10 45  0.00000000
PG02  12706.205067 -21135.241334  -8994.254462   -432.905926
PG03   1538.766652 -15031.407679 -22010.283784    372.713732
PG04   2057.362408 -25233.240792  -7786.649301    365.147827
PG05 -17150.710670   7848.955954  18557.535412   -173.365700
PG06 -19333.604142    207.137640 -18199.975411    263.526478
PG07  -5428.941485 -15373.939887  21410.230824   -132.803331
PG08   7958.223118 -19044.812685  16362.056707    187.980749
PG09  -7854.459639 -24987.985315   4146.282373    203.237519
PG10  24285.608507  10914.504872   2646.969588    -26.390157
PG11 -23045.774047  10620.940983  -7732.960417   -666.598949
PG12  -4652.597183  14651.370236 -21944.908916   -506.957050
PG13 -13301.544986  11050.693242  19883.860143    651.892928
PG14 -22294.548991 -13437.503105   5845.227573    405.261770
PG15  -5549.435930  20169.101926  15755.671548    161.038461
PG16  20468.580650  -3073.360545  16559.866698   -286.784940
PG17 -12582.730070 -16996.941917 -15552.530537    704.649462
PG18   5336.199707  14490.726353  21595.702386   -613.354932
PG19 -14837.937166  -8051.815480 -20777.659320    484.656329
PG20 -24102.020366   3249.377119  10562.131007    375.915767
PG21  16028.419325 -19974.901070  -4104.095715    120.529883
PG22 -24270.067196 -10131.763889  -1879.206909    -16.160816
PG23  17165.861159  15351.993624  13429.340717    229.999221
PG24 -13075.382118  21570.696239  -8031.074779   -471.249923
PG25   6342.067660  17133.631256 -19704.103228    496.035456
PG26  26031.617009   3575.597553   4895.213321    150.106892
PG27  13598.942360  -7671.192903  21138.726472    -24.834337
PG28  18151.762590   1938.853176 -19302.541440   -251.983760
PG29   3675.371371  26174.037011   1812.009374   -597.719704
PG30 -15239.913894  -7229.472892  20714.118115   -387.521091
PG31  22852.083749  -7107.907171 -12146.983078   -227.759299
PG32  14584.606128  14195.112641 -16957.705574   -618.033234
PR01  15983.187036  18576.480878  -7043.316980     85.916816
PR02  14318.607618   5589.088911 -20327.495072    -23.001425
PR03   5203.129116 -11442.503727 -22135.923706    100.499384
PR04  -6469.415431 -21630.909189 -11828.963313    237.248937
PR05 -14593.639732 -20342.415057   4852.488547    131.761606
PR07  -4648.299684  12211.790678  21960.495399     82.783319
PR08   6702.061703  21697.993173  11710.266181    -75.485297
PR09 -25520.746799   1280.745363    223.954364    187.597405
PR11  -2288.194529  10953.771214 -22911.480281     24.103052
PR12  17919.759445   7433.352182 -16541.464988     40.346754
PR13  25353.751329    349.337567  -2797.023633    -47.538910
PR14  18174.525465  -8342.723993  15835.143845     26.494325
PR15    529.355233 -11074.801004  22993.200544     79.638041
PR16 -17762.038519  -7347.579523  16801.426835     25.750932
PR17  14320.932283 -20358.504296   5671.672169     88.428358
PR18   7006.632085 -22012.203166 -10754.460773    142.962834
PR19  -2446.937835 -14066.247442 -21145.240728   -277.308747
PR20 -14231.153841   5727.366231 -20391.393539   -113.123114
PR21 -14505.478891  20131.248377  -5865.881677   -102.347568
PR22  -6678.634602  21667.029040  11722.877735    110.648806
PR24  14481.064352  -6640.892103  19936.071815    -56.559859
PR25 -15100.960133  19829.775473  -5376.361919    -37.155271
PR26   6030.525132  21255.734036  12747.467046    -18.685398
EOF
